NORAD_CAT_ID,OBJECT_NAME,OBJECT_TYPE,EPOCH,MEAN_MOTION,ECCENTRICITY,INCLINATION,RA_OF_ASC_NODE,ARG_OF_PERICENTER,MEAN_ANOMALY,BSTAR,MEAN_MOTION_DOT,MEAN_MOTION_DDOT,TLE_LINE0,TLE_LINE1,TLE_LINE2,SEMIMAJOR_AXIS,PERIOD,APOGEE,PERIGEE,DECAYED
52633.0,STARLINK-3994,PAYLOAD,2022-10-08 06:29:37,15.08838385,0.0001455,53.2185,113.4789,64.0035,296.1107,1.6365e-05,-2.8e-07,0.0,0 STARLINK-3994,1 52633U 22052AM  22281.27056955 -.00000028  00000-0  16365-4 0  9990,2 52633  53.2185 113.4789 0001455  64.0035 296.1107 15.08838385 22538,6917.885,95.438,540.757,538.744,0.0
52633.0,STARLINK-3994,PAYLOAD,2022-10-08 19:12:41,15.08849784,0.0001541999999999,53.2189,111.1011,58.0728,302.0414,0.00010311,1.354e-05,0.0,0 STARLINK-3994,1 52633U 22052AM  22281.80048112  .00001354  00000-0  10311-3 0  9991,2 52633  53.2189 111.1011 0001542  58.0728 302.0414 15.08849784 22616,6917.85,95.437,540.7819999999998,538.649,0.0
52633.0,STARLINK-3994,PAYLOAD,2022-10-09 06:20:24,15.08842972,0.0001411,53.2187,109.0183,60.7801,299.3332,-1.1592e-05,-4.72e-06,0.0,0 STARLINK-3994,1 52633U 22052AM  22282.26416675 -.00000472  00000-0 -11592-4 0  9990,2 52633  53.2187 109.0183 0001411  60.7801 299.3332 15.08842972 23055,6917.871,95.437,540.712,538.76,0.0
52633.0,STARLINK-3994,PAYLOAD,2022-10-09 19:03:28,15.08847942,0.0001643,53.2188,106.6402,59.6458,300.4697,0.0001849,2.657e-05,0.0,0 STARLINK-3994,1 52633U 22052AM  22282.79407722  .00002657  00000-0  18490-3 0  9999,2 52633  53.2188 106.6402 0001643  59.6458 300.4697 15.08847942 23134,6917.856,95.437,540.8580000000002,538.585,0.0
52633.0,STARLINK-3994,PAYLOAD,2022-10-09 22:14:14,15.08848477,0.0001652,53.2186,106.0457,57.6827,302.4325,0.00018723,2.694e-05,0.0,0 STARLINK-3994,1 52633U 22052AM  22282.92655703  .00002694  00000-0  18723-3 0  9998,2 52633  53.2186 106.0457 0001652  57.6827 302.4325 15.08848477 22788,6917.854,95.437,540.862,538.577,0.0
52633.0,STARLINK-3994,PAYLOAD,2022-10-10 18:54:16,15.08838837,0.0001685,53.2186,102.1796,59.7299,300.386,-2.8711000000000008e-06,-3.34e-06,0.0,0 STARLINK-3994,1 52633U 22052AM  22283.78768705 -.00000334  00000-0 -28711-5 0  9991,2 52633  53.2186 102.1796 0001685  59.7299 300.3860 15.08838837 23289,6917.884,95.438,540.915,538.5830000000002,0.0
52633.0,STARLINK-3994,PAYLOAD,2022-10-10 20:29:39,15.0883938,0.0001676999999999,53.2185,101.8823,56.8936,303.2217,-2.8861e-05,-7.47e-06,0.0,0 STARLINK-3994,1 52633U 22052AM  22283.85392730 -.00000747  00000-0 -28861-4 0  9993,2 52633  53.2185 101.8823 0001677  56.8936 303.2217 15.08839380 22924,6917.882,95.438,540.9069999999998,538.587,0.0
52633.0,STARLINK-3994,PAYLOAD,2022-10-11 12:23:31,15.08828827,0.0001574,53.2202,98.909,53.7273,306.3864,-0.00012135,-2.218e-05,0.0,0 STARLINK-3994,1 52633U 22052AM  22284.51633930 -.00002218  00000-0 -12135-3 0  9998,2 52633  53.2202  98.9090 0001574  53.7273 306.3864 15.08828827 23390,6917.915,95.438,540.868,538.691,0.0
52633.0,STARLINK-3994,PAYLOAD,2022-10-11 20:20:27,15.08829941,0.0001681,53.2196,97.4214,53.1223,306.9923,-0.000127,-2.308e-05,0.0,0 STARLINK-3994,1 52633U 22052AM  22284.84753834 -.00002308  00000-0 -12700-3 0  9998,2 52633  53.2196  97.4214 0001681  53.1223 306.9923 15.08829941 23077,6917.911,95.438,540.939,538.613,0.0
52633.0,STARLINK-3994,PAYLOAD,2022-10-12 12:14:18,15.08831342,0.0001499,53.2192,94.448,48.9209,311.1913,-7.5597e-07,-3e-06,0.0,0 STARLINK-3994,1 52633U 22052AM  22285.50993911 -.00000300  00000-0 -75597-6 0  9990,2 52633  53.2192  94.4480 0001499  48.9209 311.1913 15.08831342 23174,6917.906999999997,95.438,540.809,538.735,0.0
52633.0,STARLINK-3994,PAYLOAD,2022-10-12 18:35:51,15.08834183,0.0001548,53.2179,93.2595,54.5883,305.5254,7.080899999999999e-05,8.39e-06,0.0,0 STARLINK-3994,1 52633U 22052AM  22285.77489667  .00000839  00000-0  70809-4 0  9991,2 52633  53.2179  93.2595 0001548  54.5883 305.5254 15.08834183 23585,6917.898,95.438,540.8340000000002,538.692,0.0
52633.0,STARLINK-3994,PAYLOAD,2022-10-12 20:11:14,15.0883634,0.0001588999999999,53.2193,92.9616,54.3874,305.7266,8.3014e-05,1.033e-05,0.0,0 STARLINK-3994,1 52633U 22052AM  22285.84113545  .00001033  00000-0  83014-4 0  9997,2 52633  53.2193  92.9616 0001589  54.3874 305.7266 15.08836340 23227,6917.892,95.438,540.856,538.6569999999998,0.0
52633.0,STARLINK-3994,PAYLOAD,2022-10-13 04:08:09,15.0884245,0.0001588,53.2198,91.4745,53.1597,306.954,0.00013887,1.923e-05,0.0,0 STARLINK-3994,1 52633U 22052AM  22286.17233116  .00001923  00000-0  13887-3 0  9999,2 52633  53.2198  91.4745 0001588  53.1597 306.9540 15.08842450 23279,6917.873000000001,95.437,540.836,538.639,0.0
52633.0,STARLINK-3994,PAYLOAD,2022-10-13 13:40:28,15.08841995,0.0001539,53.2185,89.6907,53.0615,307.0518,0.00018845,2.713e-05,0.0,0 STARLINK-3994,1 52633U 22052AM  22286.56977102  .00002713  00000-0  18845-3 0  9999,2 52633  53.2185  89.6907 0001539  53.0615 307.0518 15.08841995 23708,6917.874,95.437,540.804,538.675,0.0
52633.0,STARLINK-3994,PAYLOAD,2022-10-13 20:02:01,15.08834567,0.0001436,53.2194,88.5012,51.8944,308.2177,0.00020554,2.984e-05,0.0,0 STARLINK-3994,1 52633U 22052AM  22286.83473641  .00002984  00000-0  20554-3 0  9998,2 52633  53.2194  88.5012 0001436  51.8944 308.2177 15.08834567 23374,6917.897,95.438,540.755,538.769,0.0
52633.0,STARLINK-3994,PAYLOAD,2022-10-14 10:20:29,15.08839372,0.0001892,53.2217,85.8265,59.4604,300.6575,0.00017371,2.478e-05,0.0,0 STARLINK-3994,1 52633U 22052AM  22287.43089772  .00002478  00000-0  17371-3 0  9994,2 52633  53.2217  85.8265 0001892  59.4604 300.6575 15.08839372 23460,6917.882,95.438,541.056,538.438,0.0
52633.0,STARLINK-3994,PAYLOAD,2022-10-14 19:52:48,15.08845856,0.0001783,53.2202,84.0415,59.6339,300.4829,9.9684e-05,1.299e-05,0.0,0 STARLINK-3994,1 52633U 22052AM  22287.82833433  .00001299  00000-0  99684-4 0  9996,2 52633  53.2202  84.0415 0001783  59.6339 300.4829 15.08845856 23529,6917.861999999999,95.437,540.961,538.494,0.0
52633.0,STARLINK-3994,PAYLOAD,2022-10-15 03:49:43,15.08854479,0.0001635,53.2199,82.5543,57.2525,302.8624,9.9867e-05,1.302e-05,0.0,0 STARLINK-3994,1 52633U 22052AM  22288.15952606  .00001302  00000-0  99867-4 0  9995,2 52633  53.2199  82.5543 0001635  57.2525 302.8624 15.08854479 23942,6917.8359999999975,95.437,540.832,538.57,0.0
52633.0,STARLINK-3994,PAYLOAD,2022-10-15 10:11:15,15.08847666,0.0001392,53.2225,81.3652,62.2767,297.8366,0.00012737,1.74e-05,0.0,0 STARLINK-3994,1 52633U 22052AM  22288.42448751  .00001740  00000-0  12737-3 0  9992,2 52633  53.2225  81.3652 0001392  62.2767 297.8366 15.08847666 23614,6917.857,95.437,540.685,538.759,0.0
52633.0,STARLINK-3994,PAYLOAD,2022-10-15 16:32:48,15.08848564,0.00015,53.2192,80.1748,54.8445,305.2687,8.7968e-05,1.113e-05,0.0,0 STARLINK-3994,1 52633U 22052AM  22288.68944708  .00001113  00000-0  87968-4 0  9996,2 52633  53.2192  80.1748 0001500  54.8445 305.2687 15.08848564 23653,6917.854,95.437,540.757,538.682,0.0
52633.0,STARLINK-3994,PAYLOAD,2022-10-16 10:02:03,15.08839132,0.000184,53.2196,76.9055,68.1865,291.9323,2.0482e-05,3.8e-07,0.0,0 STARLINK-3994,1 52633U 22052AM  22289.41809271  .00000038  00000-0  20482-4 0  9996,2 52633  53.2196  76.9055 0001840  68.1865 291.9323 15.08839132 24135,6917.8830000000025,95.438,541.021,538.475,0.0
52633.0,STARLINK-3994,PAYLOAD,2022-10-16 13:12:50,15.08827468,0.000172,53.2195,76.3101,64.5113,295.6057,-0.00012629,-2.297e-05,0.0,0 STARLINK-3994,1 52633U 22052AM  22289.55057880 -.00002297  00000-0 -12629-3 0  9996,2 52633  53.2195  76.3101 0001720  64.5113 295.6057 15.08827468 23787,6917.919,95.438,540.974,538.594,0.0
52633.0,STARLINK-3994,PAYLOAD,2022-10-16 16:23:36,15.0882573,0.0001798,53.2205,75.7149,63.1284,296.9892,-0.0001064,-1.98e-05,0.0,0 STARLINK-3994,1 52633U 22052AM  22289.68306609 -.00001980  00000-0 -10640-3 0  9995,2 52633  53.2205  75.7149 0001798  63.1284 296.9892 15.08825730 24178,6917.924,95.438,541.033,538.545,0.0
52633.0,STARLINK-3994,PAYLOAD,2022-10-16 19:34:23,15.08827223,0.0001778,53.2198,75.1206,61.1814,298.9357,-6.8438e-05,-1.377e-05,0.0,0 STARLINK-3994,1 52633U 22052AM  22289.81554500 -.00001377  00000-0 -68438-4 0  9994,2 52633  53.2198  75.1206 0001778  61.1814 298.9357 15.08827223 23820,6917.919,95.438,541.014,538.554,0.0
52633.0,STARLINK-3994,PAYLOAD,2022-10-17 09:52:50,15.08836726,0.0001806,53.2203,72.4448,59.7797,300.3374,1.882e-05,1.1e-07,0.0,0 STARLINK-3994,1 52633U 22052AM  22290.41169733  .00000011  00000-0  18820-4 0  9994,2 52633  53.2203  72.4448 0001806  59.7797 300.3374 15.08836726 24286,6917.89,95.438,541.005,538.506,0.0
52633.0,STARLINK-3994,PAYLOAD,2022-10-17 13:03:36,15.08839454,0.0001792,53.2202,71.8501,61.885,298.2323,1.9384e-05,2e-07,0.0,0 STARLINK-3994,1 52633U 22052AM  22290.54417541  .00000020  00000-0  19384-4 0  9997,2 52633  53.2202  71.8501 0001792  61.8850 298.2323 15.08839454 23937,6917.882,95.438,540.987,538.507,0.0
52633.0,STARLINK-3994,PAYLOAD,2022-10-17 19:25:08,15.08844677,0.0001816,53.2195,70.6605,54.6183,305.4979,4.0449e-05,3.56e-06,0.0,0 STARLINK-3994,1 52633U 22052AM  22290.80913157  .00000356  00000-0  40449-4 0  9998,2 52633  53.2195  70.6605 0001816  54.6183 305.4979 15.08844677 24343,6917.866,95.437,540.987,538.475,0.0
52633.0,STARLINK-3994,PAYLOAD,2022-10-18 09:43:37,15.08827533,0.0001805,53.2195,67.984,53.2845,306.8312,0.0001382,1.911e-05,0.0,0 STARLINK-3994,1 52633U 22052AM  22291.40529950  .00001911  00000-0  13820-3 0  9999,2 52633  53.2195  67.9840 0001805  53.2845 306.8312 15.08827533 24439,6917.918000000002,95.438,541.0319999999998,538.535,0.0
52633.0,STARLINK-3994,PAYLOAD,2022-10-18 17:40:34,15.08818114,0.0001824,53.2195,66.4976,50.1364,309.9788,4.7589e-05,4.69e-06,0.0,0 STARLINK-3994,1 52633U 22052AM  22291.73651210  .00000469  00000-0  47589-4 0  9997,2 52633  53.2195  66.4976 0001824  50.1364 309.9788 15.08818114 24487,6917.946999999999,95.439,541.0740000000002,538.55,0.0
